COSMOS 2361 [-]         
1 25590U 98076A   22268.36575619  .00000072  00000+0  61940-4 0  9995
2 25590  82.9329 132.3239 0030350 291.9354 242.5604 13.73028178189947
COSMOS 2378 [-]         
1 26818U 01023A   22268.16627109  .00000031  00000+0  16769-4 0  9999
2 26818  82.9299 150.3289 0031721 236.5972 123.2144 13.73975459 68006
COSMOS 2389 [-]         
1 27436U 02026A   22268.49098213  .00000036  00000+0  20986-4 0  9995
2 27436  82.9465  95.9782 0047703  96.4402 323.5586 13.74982356 20118
COSMOS 2398 [-]         
1 27818U 03023A   22268.16396367  .00000063  00000+0  51592-4 0  9999
2 27818  82.9461  58.1263 0032185 133.1928 227.1926 13.72217491967063
COSMOS 2407 [+]         
1 28380U 04028A   22268.19193011  .00000048  00000+0  32717-4 0  9995
2 28380  82.9651   2.5854 0040575  98.1761 262.4010 13.76120599912876
COSMOS 2414 [+]         
1 28521U 05002A   22268.47525690  .00000051  00000+0  30131-4 0  9990
2 28521  82.9543 352.6167 0038927 248.5394 111.1606 13.87665560895426
COSMOS 2429 [-]         
1 32052U 07038A   22268.14131519  .00000082  00000+0  69230-4 0  9998
2 32052  82.9789 128.8814 0039743  76.2505 284.3070 13.74969404754603
COSMOS 2454 [-]         
1 35635U 09039A   22268.30533713  .00000040  00000+0  19855-4 0  9993
2 35635  82.9601 338.9096 0018791 189.0230 171.0597 13.89694600668564
COSMOS 2463 [+]         
1 36519U 10017A   22268.47848617  .00000055  00000+0  45082-4 0  9990
2 36519  82.9640 169.3510 0035212 307.0318 226.9967 13.71480156621405
